[{"OBJECT_NAME":"STARLINK-34927","OBJECT_ID":"2025-175Y","EPOCH":"2026-03-09T14:55:22.738080","MEAN_MOTION":15.05645633,"ECCENTRICITY":0.0001915,"INCLINATION":97.6019,"RA_OF_ASC_NODE":302.6445,"ARG_OF_PERICENTER":90.2716,"MEAN_ANOMALY":269.873,"EPHEMERIS_TYPE":0,"CLASSIFICATION_TYPE":"U","NORAD_CAT_ID":65196,"ELEMENT_SET_NO":999,"REV_AT_EPOCH":3263,"BSTAR":1.7277e-5,"MEAN_MOTION_DOT":1.88e-6,"MEAN_MOTION_DDOT":0},{"OBJECT_NAME":"COSMOS 2251 DEB","OBJECT_ID":"1993-036AZN","EPOCH":"2026-03-08T04:55:11.679456","MEAN_MOTION":14.74823481,"ECCENTRICITY":0.01364476,"INCLINATION":73.9716,"RA_OF_ASC_NODE":347.1087,"ARG_OF_PERICENTER":142.1945,"MEAN_ANOMALY":218.8911,"EPHEMERIS_TYPE":0,"CLASSIFICATION_TYPE":"U","NORAD_CAT_ID":36385,"ELEMENT_SET_NO":999,"REV_AT_EPOCH":86361,"BSTAR":0.002162243,"MEAN_MOTION_DOT":0.00016854,"MEAN_MOTION_DDOT":0}]
